STARLINK-30215          
1 57445U 23105R   26037.12421998  .00000129  00000+0  24645-4 0  9996
2 57445  43.0015  73.0528 0000822 286.0567  74.0184 15.02532722140650
STARLINK-30162          
1 57446U 23105S   26037.05028752 -.00000444  00000+0 -17832-4 0  9992
2 57446  43.0051  60.6185 0001310 280.5314  79.5380 15.02522130140957
STARLINK-30178          
1 57447U 23105T   26037.12310873  .00001366  00000+0  11618-3 0  9996
2 57447  43.0024  73.0436 0000995 275.2699  84.8029 15.02534871140819
STARLINK-30196          
1 57448U 23105U   26037.11311242  .00001188  00000+0  10302-3 0  9998
2 57448  43.0038  72.9638 0001363 272.3826  87.6860 15.02539327140654
STARLINK-30225          
1 57449U 23105V   26037.10978542  .00000565  00000+0  56912-4 0  9996
2 57449  43.0025  72.9419 0001239 268.7528  91.3173 15.02536948140877
STARLINK-30217          
1 57450U 23105W   26037.10009454  .00001322  00000+0  11290-3 0  9996
2 57450  43.0003  60.1785 0001241 269.5131  90.5569 15.02539040140968
STARLINK-30216          
1 57451U 23105X   26037.10646292  .00000392  00000+0  44061-4 0  9993
2 57451  43.0018  72.9339 0001044 266.0840  93.9883 15.02531720140650
STARLINK-30165          
1 57457U 23107A   26036.73594511 -.00003087  00000+0 -21362-3 0  9999
2 57457  43.0014 152.8626 0001471 270.8761  89.1912 15.02528241140292
STARLINK-30140          
1 57458U 23107B   26037.33092250 -.00000057  00000+0  10843-4 0  9996
2 57458  42.9980 149.5832 0000214 209.6920 150.3911 15.02537867140391
STARLINK-30185          
1 57459U 23107C   26037.29985395  .00871577  36420-3  16325-2 0  9993
2 57459  42.9946 108.7046 0001251 347.2921  12.7926 16.00143194140864
STARLINK-30077          
1 57460U 23107D   26037.32426670 -.00000339  00000+0 -99832-5 0  9995
2 57460  43.0085 149.5382 0001611 265.0684  94.9974 15.02535008140394
STARLINK-30229          
1 57461U 23107E   26036.73927754  .00000661  00000+0  63963-4 0  9990
2 57461  43.0024 152.8809 0001180 253.8609 106.2103 15.02539409140303
STARLINK-30088          
1 57462U 23107F   26037.32092979  .00001130  00000+0  98704-4 0  9992
2 57462  43.0006 149.5035 0001041 255.7996 104.2731 15.02535333140390
STARLINK-30091          
1 57463U 23107G   26037.31427627 -.00000005  00000+0  14692-4 0  9999
2 57463  43.0008 149.4604 0000953 297.0829  62.9916 15.02538235140398
STARLINK-30116          
1 57465U 23107J   26036.71707931  .00000931  00000+0  83967-4 0  9991
2 57465  43.0034 152.7198 0001437 272.8651  87.2027 15.02541102140307
STARLINK-30092          
1 57467U 23107L   26037.30760841  .00000960  00000+0  86103-4 0  9995
2 57467  43.0042 149.4081 0001734 269.9788  90.0856 15.02537597140394
