[{"OBJECT_NAME":"STARLINK-30215","OBJECT_ID":"2023-105R","EPOCH":"2026-02-06T02:58:52.606272","MEAN_MOTION":15.02532722,"ECCENTRICITY":8.223e-5,"INCLINATION":43.0015,"RA_OF_ASC_NODE":73.0528,"ARG_OF_PERICENTER":286.0567,"MEAN_ANOMALY":74.0184,"EPHEMERIS_TYPE":0,"CLASSIFICATION_TYPE":"U","NORAD_CAT_ID":57445,"ELEMENT_SET_NO":999,"REV_AT_EPOCH":14065,"BSTAR":2.4644853e-5,"MEAN_MOTION_DOT":1.29e-6,"MEAN_MOTION_DDOT":0},{"OBJECT_NAME":"STARLINK-30162","OBJECT_ID":"2023-105S","EPOCH":"2026-02-06T01:12:24.841728","MEAN_MOTION":15.0252213,"ECCENTRICITY":0.00013106,"INCLINATION":43.0051,"RA_OF_ASC_NODE":60.6185,"ARG_OF_PERICENTER":280.5314,"MEAN_ANOMALY":79.538,"EPHEMERIS_TYPE":0,"CLASSIFICATION_TYPE":"U","NORAD_CAT_ID":57446,"ELEMENT_SET_NO":999,"REV_AT_EPOCH":14095,"BSTAR":-1.7832188e-5,"MEAN_MOTION_DOT":-4.44e-6,"MEAN_MOTION_DDOT":0},{"OBJECT_NAME":"STARLINK-30178","OBJECT_ID":"2023-105T","EPOCH":"2026-02-06T02:57:16.594272","MEAN_MOTION":15.02534871,"ECCENTRICITY":9.954e-5,"INCLINATION":43.0024,"RA_OF_ASC_NODE":73.0436,"ARG_OF_PERICENTER":275.2699,"MEAN_ANOMALY":84.8029,"EPHEMERIS_TYPE":0,"CLASSIFICATION_TYPE":"U","NORAD_CAT_ID":57447,"ELEMENT_SET_NO":999,"REV_AT_EPOCH":14081,"BSTAR":0.0001161754,"MEAN_MOTION_DOT":1.366e-5,"MEAN_MOTION_DDOT":0},{"OBJECT_NAME":"STARLINK-30196","OBJECT_ID":"2023-105U","EPOCH":"2026-02-06T02:42:52.913088","MEAN_MOTION":15.02539327,"ECCENTRICITY":0.00013631,"INCLINATION":43.0038,"RA_OF_ASC_NODE":72.9638,"ARG_OF_PERICENTER":272.3826,"MEAN_ANOMALY":87.686,"EPHEMERIS_TYPE":0,"CLASSIFICATION_TYPE":"U","NORAD_CAT_ID":57448,"ELEMENT_SET_NO":999,"REV_AT_EPOCH":14065,"BSTAR":0.00010301582,"MEAN_MOTION_DOT":1.188e-5,"MEAN_MOTION_DDOT":0},{"OBJECT_NAME":"STARLINK-30225","OBJECT_ID":"2023-105V","EPOCH":"2026-02-06T02:38:05.460288","MEAN_MOTION":15.02536948,"ECCENTRICITY":0.00012393,"INCLINATION":43.0025,"RA_OF_ASC_NODE":72.9419,"ARG_OF_PERICENTER":268.7528,"MEAN_ANOMALY":91.3173,"EPHEMERIS_TYPE":0,"CLASSIFICATION_TYPE":"U","NORAD_CAT_ID":57449,"ELEMENT_SET_NO":999,"REV_AT_EPOCH":14087,"BSTAR":5.6911623e-5,"MEAN_MOTION_DOT":5.65e-6,"MEAN_MOTION_DDOT":0},{"OBJECT_NAME":"STARLINK-30217","OBJECT_ID":"2023-105W","EPOCH":"2026-02-06T02:24:08.168256","MEAN_MOTION":15.0253904,"ECCENTRICITY":0.00012415,"INCLINATION":43.0003,"RA_OF_ASC_NODE":60.1785,"ARG_OF_PERICENTER":269.5131,"MEAN_ANOMALY":90.5569,"EPHEMERIS_TYPE":0,"CLASSIFICATION_TYPE":"U","NORAD_CAT_ID":57450,"ELEMENT_SET_NO":999,"REV_AT_EPOCH":14096,"BSTAR":0.00011290226,"MEAN_MOTION_DOT":1.322e-5,"MEAN_MOTION_DDOT":0},{"OBJECT_NAME":"STARLINK-30216","OBJECT_ID":"2023-105X","EPOCH":"2026-02-06T02:33:18.396288","MEAN_MOTION":15.0253172,"ECCENTRICITY":0.00010448,"INCLINATION":43.0018,"RA_OF_ASC_NODE":72.9339,"ARG_OF_PERICENTER":266.084,"MEAN_ANOMALY":93.9883,"EPHEMERIS_TYPE":0,"CLASSIFICATION_TYPE":"U","NORAD_CAT_ID":57451,"ELEMENT_SET_NO":999,"REV_AT_EPOCH":14065,"BSTAR":4.4061104e-5,"MEAN_MOTION_DOT":3.92e-6,"MEAN_MOTION_DDOT":0},{"OBJECT_NAME":"STARLINK-30165","OBJECT_ID":"2023-107A","EPOCH":"2026-02-05T17:39:45.657504","MEAN_MOTION":15.02528241,"ECCENTRICITY":0.00014714,"INCLINATION":43.0014,"RA_OF_ASC_NODE":152.8626,"ARG_OF_PERICENTER":270.8761,"MEAN_ANOMALY":89.1912,"EPHEMERIS_TYPE":0,"CLASSIFICATION_TYPE":"U","NORAD_CAT_ID":57457,"ELEMENT_SET_NO":999,"REV_AT_EPOCH":14029,"BSTAR":-0.00021361511,"MEAN_MOTION_DOT":-3.087e-5,"MEAN_MOTION_DDOT":0},{"OBJECT_NAME":"STARLINK-30140","OBJECT_ID":"2023-107B","EPOCH":"2026-02-06T07:56:31.704000","MEAN_MOTION":15.02537867,"ECCENTRICITY":2.149e-5,"INCLINATION":42.998,"RA_OF_ASC_NODE":149.5832,"ARG_OF_PERICENTER":209.692,"MEAN_ANOMALY":150.3911,"EPHEMERIS_TYPE":0,"CLASSIFICATION_TYPE":"U","NORAD_CAT_ID":57458,"ELEMENT_SET_NO":999,"REV_AT_EPOCH":14039,"BSTAR":1.0842836e-5,"MEAN_MOTION_DOT":-5.7e-7,"MEAN_MOTION_DDOT":0},{"OBJECT_NAME":"STARLINK-30185","OBJECT_ID":"2023-107C","EPOCH":"2026-02-06T07:11:47.381280","MEAN_MOTION":16.00143194,"ECCENTRICITY":0.00012517,"INCLINATION":42.9946,"RA_OF_ASC_NODE":108.7046,"ARG_OF_PERICENTER":347.2921,"MEAN_ANOMALY":12.7926,"EPHEMERIS_TYPE":0,"CLASSIFICATION_TYPE":"U","NORAD_CAT_ID":57459,"ELEMENT_SET_NO":999,"REV_AT_EPOCH":14086,"BSTAR":0.001632468,"MEAN_MOTION_DOT":0.00871577,"MEAN_MOTION_DDOT":0.00036419941},{"OBJECT_NAME":"STARLINK-30077","OBJECT_ID":"2023-107D","EPOCH":"2026-02-06T07:46:56.642880","MEAN_MOTION":15.02535008,"ECCENTRICITY":0.00016118,"INCLINATION":43.0085,"RA_OF_ASC_NODE":149.5382,"ARG_OF_PERICENTER":265.0684,"MEAN_ANOMALY":94.9974,"EPHEMERIS_TYPE":0,"CLASSIFICATION_TYPE":"U","NORAD_CAT_ID":57460,"ELEMENT_SET_NO":999,"REV_AT_EPOCH":14039,"BSTAR":-9.983191e-6,"MEAN_MOTION_DOT":-3.39e-6,"MEAN_MOTION_DDOT":0},{"OBJECT_NAME":"STARLINK-30229","OBJECT_ID":"2023-107E","EPOCH":"2026-02-05T17:44:33.579456","MEAN_MOTION":15.02539409,"ECCENTRICITY":0.00011804,"INCLINATION":43.0024,"RA_OF_ASC_NODE":152.8809,"ARG_OF_PERICENTER":253.8609,"MEAN_ANOMALY":106.2103,"EPHEMERIS_TYPE":0,"CLASSIFICATION_TYPE":"U","NORAD_CAT_ID":57461,"ELEMENT_SET_NO":999,"REV_AT_EPOCH":14030,"BSTAR":6.3962707e-5,"MEAN_MOTION_DOT":6.61e-6,"MEAN_MOTION_DDOT":0},{"OBJECT_NAME":"STARLINK-30088","OBJECT_ID":"2023-107F","EPOCH":"2026-02-06T07:42:08.333856","MEAN_MOTION":15.02535333,"ECCENTRICITY":0.00010415,"INCLINATION":43.0006,"RA_OF_ASC_NODE":149.5035,"ARG_OF_PERICENTER":255.7996,"MEAN_ANOMALY":104.2731,"EPHEMERIS_TYPE":0,"CLASSIFICATION_TYPE":"U","NORAD_CAT_ID":57462,"ELEMENT_SET_NO":999,"REV_AT_EPOCH":14039,"BSTAR":9.8703847e-5,"MEAN_MOTION_DOT":1.13e-5,"MEAN_MOTION_DDOT":0},{"OBJECT_NAME":"STARLINK-30091","OBJECT_ID":"2023-107G","EPOCH":"2026-02-06T07:32:33.469728","MEAN_MOTION":15.02538235,"ECCENTRICITY":9.535e-5,"INCLINATION":43.0008,"RA_OF_ASC_NODE":149.4604,"ARG_OF_PERICENTER":297.0829,"MEAN_ANOMALY":62.9916,"EPHEMERIS_TYPE":0,"CLASSIFICATION_TYPE":"U","NORAD_CAT_ID":57463,"ELEMENT_SET_NO":999,"REV_AT_EPOCH":14039,"BSTAR":1.4691939e-5,"MEAN_MOTION_DOT":-5.0e-8,"MEAN_MOTION_DDOT":0},{"OBJECT_NAME":"STARLINK-30116","OBJECT_ID":"2023-107J","EPOCH":"2026-02-05T17:12:35.652384","MEAN_MOTION":15.02541102,"ECCENTRICITY":0.0001437,"INCLINATION":43.0034,"RA_OF_ASC_NODE":152.7198,"ARG_OF_PERICENTER":272.8651,"MEAN_ANOMALY":87.2027,"EPHEMERIS_TYPE":0,"CLASSIFICATION_TYPE":"U","NORAD_CAT_ID":57465,"ELEMENT_SET_NO":999,"REV_AT_EPOCH":14030,"BSTAR":8.3967e-5,"MEAN_MOTION_DOT":9.31e-6,"MEAN_MOTION_DDOT":0},{"OBJECT_NAME":"STARLINK-30092","OBJECT_ID":"2023-107L","EPOCH":"2026-02-06T07:22:57.366624","MEAN_MOTION":15.02537597,"ECCENTRICITY":0.00017344,"INCLINATION":43.0042,"RA_OF_ASC_NODE":149.4081,"ARG_OF_PERICENTER":269.9788,"MEAN_ANOMALY":90.0856,"EPHEMERIS_TYPE":0,"CLASSIFICATION_TYPE":"U","NORAD_CAT_ID":57467,"ELEMENT_SET_NO":999,"REV_AT_EPOCH":14039,"BSTAR":8.6102853e-5,"MEAN_MOTION_DOT":9.6e-6,"MEAN_MOTION_DDOT":0}]
